      2.10          N: GNSS NAV DATA                        RINEX VERSION / TYPE
fic2rin                                 02/20/2022 00:17:22 PGM / RUN BY / DATE
                                                            END OF HEADER
15 22  2 19 12  0  0.0-8.265534415841e-05 2.955857780762e-12 0.000000000000e+00
    3.100000000000e+01-9.271875000000e+01 5.140571268284e-09 2.415034518259e+00
   -4.945322871208e-06 1.393913826905e-02 9.577721357346e-06 5.153748121262e+03
    5.616000000000e+05 5.587935447693e-09 4.370712946881e-02-2.216547727585e-07
    9.304346778933e-01 1.777187500000e+02 1.075496831491e+00-8.148553705684e-09
   -3.157274370293e-10 1.000000000000e+00 2.197000000000e+03 0.000000000000e+00
    2.400000000000e+00 0.000000000000e+00-1.071020960808e-08 3.100000000000e+01
    5.544000000000e+05 4.000000000000e+00
20 22  2 19 12  0  0.0 5.166330374777e-04-2.273736754432e-13 0.000000000000e+00
    2.800000000000e+01 2.156250000000e+00 5.392010313158e-09 2.159762654349e+00
    4.656612873077e-08 5.145093658939e-03 2.464279532433e-06 5.153748462677e+03
    5.616000000000e+05-5.029141902924e-08-1.032973002329e+00 1.564621925354e-07
    9.415893507131e-01 3.184687500000e+02 3.135976022469e+00-8.765365112640e-09
    8.750364487804e-11 1.000000000000e+00 2.197000000000e+03 0.000000000000e+00
    2.400000000000e+00 0.000000000000e+00-8.381903171539e-09 2.800000000000e+01
    5.544000000000e+05 4.000000000000e+00
29 22  2 19 12  0  0.0-4.820954054594e-04-4.661160346586e-12 0.000000000000e+00
    8.200000000000e+01-1.793750000000e+01 3.792657979428e-09-2.782750964633e+00
   -9.685754776001e-07 1.851434470154e-03 1.179799437523e-05 5.153751152039e+03
    5.616000000000e+05 2.980232238770e-08-2.898445062660e+00 3.539025783539e-08
    9.821549235863e-01 1.635625000000e+02 2.248773106129e+00-7.619603101339e-09
   -3.357282701443e-10 1.000000000000e+00 2.197000000000e+03 0.000000000000e+00
    3.400000000000e+00 0.000000000000e+00-1.024454832077e-08 8.200000000000e+01
    5.544000000000e+05 4.000000000000e+00
32 22  2 19 12  0  0.0-7.046293467283e-05-6.821210263297e-12 0.000000000000e+00
    6.800000000000e+01-8.290625000000e+01 4.467328939325e-09-2.275191804745e+00
   -4.259869456291e-06 5.591652588919e-03 1.141428947449e-05 5.153784008026e+03
    5.616000000000e+05 1.490116119385e-07 1.610245735598e-01-1.490116119385e-08
    9.584574661835e-01 1.557500000000e+02-2.349967418467e+00-7.975332204599e-09
   -2.475103097979e-10 1.000000000000e+00 2.197000000000e+03 0.000000000000e+00
    2.400000000000e+00 0.000000000000e+00 4.656612873077e-10 6.800000000000e+01
    5.544000000000e+05 4.000000000000e+00
21 22  2 19 12  0  0.0 1.582852564752e-04 5.684341886081e-13 0.000000000000e+00
    6.700000000000e+01 1.081562500000e+02 4.261963242162e-09-2.774776532352e+00
    5.647540092468e-06 2.459809533320e-02 9.793788194656e-06 5.153586870193e+03
    5.616000000000e+05 8.195638656616e-08-2.004870675802e+00 3.278255462646e-07
    9.593997331813e-01 1.802812500000e+02-1.001810837191e+00-7.681748547089e-09
    5.596661694853e-10 1.000000000000e+00 2.197000000000e+03 0.000000000000e+00
    2.400000000000e+00 0.000000000000e+00-1.024454832077e-08 6.700000000000e+01
    5.544000000000e+05 4.000000000000e+00
19 22  2 19 12  0  0.0 1.209587790072e-04 5.002220859751e-12 0.000000000000e+00
    6.200000000000e+01-2.465625000000e+01 3.805158500125e-09-5.509612182720e-01
   -1.223757863045e-06 8.982440689579e-03 1.162476837635e-05 5.153685934067e+03
    5.616000000000e+05-2.589076757431e-07-2.866606922576e+00-2.793967723846e-08
    9.788980524731e-01 1.691250000000e+02 2.008911237982e+00-7.748179885650e-09
   -1.967939115420e-10 1.000000000000e+00 2.197000000000e+03 0.000000000000e+00
    2.400000000000e+00 0.000000000000e+00-1.583248376846e-08 6.200000000000e+01
    5.544000000000e+05 4.000000000000e+00
13 22  2 19 12  0  0.0 2.642287872732e-04 6.252776074689e-12 0.000000000000e+00
    9.000000000000e+01-5.803125000000e+01 4.181959909702e-09 2.846108511524e+00
   -3.071501851082e-06 5.806830478832e-03 1.175515353680e-05 5.153681228638e+03
    5.616000000000e+05-3.725290298462e-08 3.026444165490e-01-8.940696716309e-08
    9.690492973643e-01 1.565937500000e+02 9.555709942246e-01-7.736393680421e-09
   -1.657211886670e-10 1.000000000000e+00 2.197000000000e+03 0.000000000000e+00
    2.400000000000e+00 0.000000000000e+00-1.117587089539e-08 9.000000000000e+01
    5.544000000000e+05 4.000000000000e+00
25 22  2 19 12  0  0.0 2.876939252019e-04 5.343281372916e-12 0.000000000000e+00
    6.800000000000e+01-1.262500000000e+01 5.142714214689e-09-4.288389309314e-01
   -5.699694156647e-07 1.051498833112e-02 3.729015588760e-06 5.153701259613e+03
    5.616000000000e+05-7.450580596924e-09 2.257782209166e+00 1.247972249985e-07
    9.574522147107e-01 3.044062500000e+02 9.815508993405e-01-8.692504934864e-09
   -2.189376910622e-10 1.000000000000e+00 2.197000000000e+03 0.000000000000e+00
    2.400000000000e+00 0.000000000000e+00 5.587935447693e-09 6.800000000000e+01
    5.544000000000e+05 4.000000000000e+00
26 22  2 19 12  0  0.0 1.845248043537e-04 3.183231456205e-12 0.000000000000e+00
    4.300000000000e+01-7.781250000000e+00 5.467727752808e-09-1.081430558884e+00
   -3.986060619354e-07 6.890165153891e-03 3.438442945480e-06 5.153694437027e+03
    5.616000000000e+05 1.471489667892e-07 2.210694314052e+00-1.061707735062e-07
    9.382746431336e-01 3.009687500000e+02 3.704652562792e-01-8.728935023752e-09
   -1.614352958566e-10 1.000000000000e+00 2.197000000000e+03 0.000000000000e+00
    2.400000000000e+00 0.000000000000e+00 6.984919309616e-09 4.300000000000e+01
    5.544000000000e+05 4.000000000000e+00
14 22  2 19 12  0  0.0-8.566491305828e-05-4.433786671143e-12 0.000000000000e+00
    1.860000000000e+02-1.412500000000e+01 5.096998024712e-09-1.123878300214e-01
   -9.462237358093e-07 1.444623223506e-03 4.110857844353e-06 5.153641582489e+03
    5.616000000000e+05 6.332993507385e-08 2.303209240218e+00 3.725290298462e-08
    9.534545145676e-01 2.982187500000e+02 3.023729021719e+00-8.526069430729e-09
   -2.971552348511e-10 1.000000000000e+00 2.197000000000e+03 0.000000000000e+00
    2.400000000000e+00 0.000000000000e+00-7.450580596924e-09 1.860000000000e+02
    5.544000000000e+05 4.000000000000e+00
23 22  2 19 12  0  0.0-7.078051567078e-08-3.410605131648e-12 0.000000000000e+00
    5.800000000000e+01-2.640625000000e+01 4.890560854347e-09 4.291819822951e-01
   -1.331791281700e-06 1.981436391361e-03 2.786517143250e-06 5.153696763992e+03
    5.616000000000e+05 2.793967723846e-08-9.060404999036e-01-2.980232238770e-08
    9.673210600735e-01 3.295937500000e+02 2.967274029959e+00-8.477495978878e-09
   -1.357199389945e-11 1.000000000000e+00 2.197000000000e+03 0.000000000000e+00
    2.400000000000e+00 0.000000000000e+00-8.381903171539e-09 8.260000000000e+02
    5.544000000000e+05 4.000000000000e+00
28 22  2 19 12  0  0.0 3.971643745899e-04-8.299139153678e-12 0.000000000000e+00
    3.400000000000e+01-1.821875000000e+01 4.551975322329e-09-2.473683231750e+00
   -8.530914783478e-07 1.681411347818e-02 4.164874553680e-06 5.153690717697e+03
    5.616000000000e+05 1.955777406693e-07 2.356656592366e+00 1.583248376846e-07
    9.691703435950e-01 3.022187500000e+02-1.287621338369e+00-7.965688945775e-09
   -2.821546100149e-10 1.000000000000e+00 2.197000000000e+03 0.000000000000e+00
    2.400000000000e+00 6.300000000000e+01-1.117587089539e-08 3.400000000000e+01
    5.544000000000e+05 4.000000000000e+00
29 22  2 19 11 59 44.0-4.820954054594e-04-4.661160346586e-12 0.000000000000e+00
    5.000000000000e+00-1.793750000000e+01 3.792657979428e-09-2.785084299952e+00
   -9.685754776001e-07 1.851435168646e-03 1.179799437523e-05 5.153751144409e+03
    5.615840000000e+05 2.980232238770e-08-2.898444939774e+00 3.539025783539e-08
    9.821549323638e-01 1.635625000000e+02 2.248772905709e+00-7.619603101339e-09
   -3.357282701443e-10 1.000000000000e+00 2.197000000000e+03 0.000000000000e+00
    2.400000000000e+00 0.000000000000e+00-1.024454832077e-08 5.000000000000e+00
    5.577000000000e+05 4.000000000000e+00
 9 22  2 19 11 59 44.0-3.534993156791e-04 1.705302565824e-12 0.000000000000e+00
    0.000000000000e+00-8.696875000000e+01 4.638407494005e-09-2.506741196816e+00
   -4.444271326065e-06 2.237320411950e-03 1.087039709091e-05 5.153626613617e+03
    5.615840000000e+05 2.607703208923e-08 1.498090038492e-01-3.352761268616e-08
    9.546035606471e-01 1.692500000000e+02 1.870320160605e+00-8.059978587603e-09
   -2.667968274445e-10 1.000000000000e+00 2.197000000000e+03 0.000000000000e+00
    2.400000000000e+00 0.000000000000e+00 1.396983861923e-09 0.000000000000e+00
    5.578200000000e+05 4.000000000000e+00
 6 22  2 19 11 59 44.0 2.064080908895e-04 1.205080479849e-11 0.000000000000e+00
    1.100000000000e+01 7.321875000000e+01 3.832659645658e-09 1.470258359968e+00
    3.907829523087e-06 2.700336510316e-03 8.881092071533e-06 5.153671854019e+03
    5.615840000000e+05 6.519258022308e-08-1.922126248868e+00-4.656612873077e-08
    9.861680955510e-01 2.199062500000e+02-9.536326818976e-01-7.778895450791e-09
    4.735911555440e-10 1.000000000000e+00 2.197000000000e+03 0.000000000000e+00
    2.400000000000e+00 0.000000000000e+00 3.725290298462e-09 1.100000000000e+01
    5.583900000000e+05 4.000000000000e+00
 9 22  2 19 13 59 44.0-3.534872084856e-04 1.705302565824e-12 0.000000000000e+00
    1.500000000000e+01-8.587500000000e+01 4.671980321019e-09-1.456952802584e+00
   -4.388391971588e-06 2.237693173811e-03 1.132860779762e-05 5.153624702454e+03
    5.687840000000e+05 1.117587089539e-08 1.497508470039e-01 5.215406417847e-08
    9.546013472521e-01 1.620000000000e+02 1.870742965874e+00-8.104266146643e-09
   -2.900120801672e-10 1.000000000000e+00 2.197000000000e+03 0.000000000000e+00
    2.400000000000e+00 0.000000000000e+00 1.396983861923e-09 1.500000000000e+01
    5.616000000000e+05 4.000000000000e+00
